{"type": "FeatureCollection", "features": [ {"type": "Feature", "properties": {"norad_id": 29750, "name": "FENGYUN 1C DEB", "group": "fengyun-1c-debris", "lat": 4.31746725133119, "lon": -155.21005720486207, "alt_km": 867.7536420139395, "timestamp": "2025-12-21T05:44:51.856852+00:00", "meta": {"OBJECT_NAME": "FENGYUN 1C DEB", "OBJECT_ID": "1999-025AQ", "EPOCH": "2025-12-20T08:31:24.310272", "MEAN_MOTION": 14.09650353, "ECCENTRICITY": 0.00350469, "INCLINATION": 98.7538, "RA_OF_ASC_NODE": 23.2636, "ARG_OF_PERICENTER": 279.2753, "MEAN_ANOMALY": 91.3043, "EPHEMERIS_TYPE": 0, "CLASSIFICATION_TYPE": "U", "NORAD_CAT_ID": 29750, "ELEMENT_SET_NO": 999, "REV_AT_EPOCH": 97181, "BSTAR": 0.0001979347, "MEAN_MOTION_DOT": 3.06e-06, "MEAN_MOTION_DDOT": 0}, "tle": {"line1": "1 29750U 99025AQ  25354.35514248  .00000306  00000+0  19793-3 0  9999", "line2": "2 29750  98.7538  23.2636 0035046 279.2753  91.3043 14.09650353971812"}}, "geometry": {"type": "Point", "coordinates": [-155.21005720486207, 4.31746725133119]}}, {"type": "Feature", "properties": {"norad_id": 29751, "name": "FENGYUN 1C DEB", "group": "fengyun-1c-debris", "lat": 18.425790906167542, "lon": 19.996136562008783, "alt_km": 819.4840263893966, "timestamp": "2025-12-21T05:44:51.856863+00:00", "meta": {"OBJECT_NAME": "FENGYUN 1C DEB", "OBJECT_ID": "1999-025AR", "EPOCH": "2025-12-20T20:22:43.468608", "MEAN_MOTION": 14.2363515, "ECCENTRICITY": 0.009012, "INCLINATION": 98.5405, "RA_OF_ASC_NODE": 22.4867, "ARG_OF_PERICENTER": 115.8376, "MEAN_ANOMALY": 64.3703, "EPHEMERIS_TYPE": 0, "CLASSIFICATION_TYPE": "U", "NORAD_CAT_ID": 29751, "ELEMENT_SET_NO": 999, "REV_AT_EPOCH": 98188, "BSTAR": 0.00011797215, "MEAN_MOTION_DOT": 2.39e-06, "MEAN_MOTION_DDOT": 0}, "tle": {"line1": "1 29751U 99025AR  25354.84911422  .00000239  00000+0  11797-3 0  9990", "line2": "2 29751  98.5405  22.4867 0090120 115.8376  64.3703 14.23635150981886"}}, "geometry": {"type": "Point", "coordinates": [19.996136562008783, 18.425790906167542]}}, {"type": "Feature", "properties": {"norad_id": 29754, "name": "FENGYUN 1C DEB", "group": "fengyun-1c-debris", "lat": 17.337897850207614, "lon": 95.20175547525919, "alt_km": 853.4957611105547, "timestamp": "2025-12-21T05:44:51.856873+00:00", "meta": {"OBJECT_NAME": "FENGYUN 1C DEB", "OBJECT_ID": "1999-025AU", "EPOCH": "2025-12-19T18:50:45.316608", "MEAN_MOTION": 14.1917499, "ECCENTRICITY": 0.00363225, "INCLINATION": 98.8847, "RA_OF_ASC_NODE": 96.5432, "ARG_OF_PERICENTER": 219.3286, "MEAN_ANOMALY": 292.5929, "EPHEMERIS_TYPE": 0, "CLASSIFICATION_TYPE": "U", "NORAD_CAT_ID": 29754, "ELEMENT_SET_NO": 999, "REV_AT_EPOCH": 97454, "BSTAR": 0.00066478726, "MEAN_MOTION_DOT": 1.356e-05, "MEAN_MOTION_DDOT": 0}, "tle": {"line1": "1 29754U 99025AU  25353.78524672  .00001356  00000+0  66479-3 0  9990", "line2": "2 29754  98.8847  96.5432 0036322 219.3286 292.5929 14.19174990974541"}}, "geometry": {"type": "Point", "coordinates": [95.20175547525919, 17.337897850207614]}}, {"type": "Feature", "properties": {"norad_id": 29758, "name": "FENGYUN 1C DEB", "group": "fengyun-1c-debris", "lat": -71.46195659321606, "lon": 138.96130454495744, "alt_km": 746.5559224315439, "timestamp": "2025-12-21T05:44:51.856884+00:00", "meta": {"OBJECT_NAME": "FENGYUN 1C DEB", "OBJECT_ID": "1999-025AY", "EPOCH": "2025-12-20T19:08:06.406368", "MEAN_MOTION": 14.41095323, "ECCENTRICITY": 0.00219096, "INCLINATION": 98.8557, "RA_OF_ASC_NODE": 110.7981, "ARG_OF_PERICENTER": 282.9162, "MEAN_ANOMALY": 230.687, "EPHEMERIS_TYPE": 0, "CLASSIFICATION_TYPE": "U", "NORAD_CAT_ID": 29758, "ELEMENT_SET_NO": 999, "REV_AT_EPOCH": 97787, "BSTAR": 0.0014818602, "MEAN_MOTION_DOT": 4.741e-05, "MEAN_MOTION_DDOT": 0}, "tle": {"line1": "1 29758U 99025AY  25354.79729637  .00004741  00000+0  14819-2 0  9995", "line2": "2 29758  98.8557 110.7981 0021909 282.9162 230.6870 14.41095323977879"}}, "geometry": {"type": "Point", "coordinates": [138.96130454495744, -71.46195659321606]}}, {"type": "Feature", "properties": {"norad_id": 29760, "name": "FENGYUN 1C DEB", "group": "fengyun-1c-debris", "lat": 80.66522974513632, "lon": -72.60226560612719, "alt_km": 813.4067823633568, "timestamp": "2025-12-21T05:44:51.856894+00:00", "meta": {"OBJECT_NAME": "FENGYUN 1C DEB", "OBJECT_ID": "1999-025BA", "EPOCH": "2025-12-19T22:38:29.893920", "MEAN_MOTION": 14.08292905, "ECCENTRICITY": 0.0131153, "INCLINATION": 98.7625, "RA_OF_ASC_NODE": 355.9047, "ARG_OF_PERICENTER": 153.2757, "MEAN_ANOMALY": 207.525, "EPHEMERIS_TYPE": 0, "CLASSIFICATION_TYPE": "U", "NORAD_CAT_ID": 29760, "ELEMENT_SET_NO": 999, "REV_AT_EPOCH": 97194, "BSTAR": 0.00022605, "MEAN_MOTION_DOT": 3.76e-06, "MEAN_MOTION_DDOT": 0}, "tle": {"line1": "1 29760U 99025BA  25353.94340155  .00000376  00000+0  22605-3 0  9991", "line2": "2 29760  98.7625 355.9047 0131153 153.2757 207.5250 14.08292905971941"}}, "geometry": {"type": "Point", "coordinates": [-72.60226560612719, 80.66522974513632]}}, {"type": "Feature", "properties": {"norad_id": 29762, "name": "FENGYUN 1C DEB", "group": "fengyun-1c-debris", "lat": 48.17245988563888, "lon": 167.5261700450802, "alt_km": 958.6978740434315, "timestamp": "2025-12-21T05:44:51.856905+00:00", "meta": {"OBJECT_NAME": "FENGYUN 1C DEB", "OBJECT_ID": "1999-025BC", "EPOCH": "2025-12-20T22:37:47.237376", "MEAN_MOTION": 14.22598676, "ECCENTRICITY": 0.02035447, "INCLINATION": 98.5801, "RA_OF_ASC_NODE": 337.5252, "ARG_OF_PERICENTER": 311.7458, "MEAN_ANOMALY": 101.25, "EPHEMERIS_TYPE": 0, "CLASSIFICATION_TYPE": "U", "NORAD_CAT_ID": 29762, "ELEMENT_SET_NO": 999, "REV_AT_EPOCH": 98065, "BSTAR": 0.00025667653, "MEAN_MOTION_DOT": 6.61e-06, "MEAN_MOTION_DDOT": 0}, "tle": {"line1": "1 29762U 99025BC  25354.94290784  .00000661  00000+0  25668-3 0  9995", "line2": "2 29762  98.5801 337.5252 0203544 311.7458 101.2500 14.22598676980650"}}, "geometry": {"type": "Point", "coordinates": [167.5261700450802, 48.17245988563888]}}, {"type": "Feature", "properties": {"norad_id": 29763, "name": "FENGYUN 1C DEB", "group": "fengyun-1c-debris", "lat": -81.01185926000656, "lon": 77.22486666806292, "alt_km": 906.8080742487855, "timestamp": "2025-12-21T05:44:51.856915+00:00", "meta": {"OBJECT_NAME": "FENGYUN 1C DEB", "OBJECT_ID": "1999-025BD", "EPOCH": "2025-12-20T21:49:24.796992", "MEAN_MOTION": 14.07881006, "ECCENTRICITY": 0.01277625, "INCLINATION": 98.7619, "RA_OF_ASC_NODE": 334.0764, "ARG_OF_PERICENTER": 157.4737, "MEAN_ANOMALY": 236.6516, "EPHEMERIS_TYPE": 0, "CLASSIFICATION_TYPE": "U", "NORAD_CAT_ID": 29763, "ELEMENT_SET_NO": 999, "REV_AT_EPOCH": 97165, "BSTAR": 5.9443347e-05, "MEAN_MOTION_DOT": 6.7e-07, "MEAN_MOTION_DDOT": 0}, "tle": {"line1": "1 29763U 99025BD  25354.90931478  .00000067  00000+0  59443-4 0  9993", "line2": "2 29763  98.7619 334.0764 0127762 157.4737 236.6516 14.07881006971657"}}, "geometry": {"type": "Point", "coordinates": [77.22486666806292, -81.01185926000656]}}, {"type": "Feature", "properties": {"norad_id": 29765, "name": "FENGYUN 1C DEB", "group": "fengyun-1c-debris", "lat": -25.819486161495135, "lon": 17.471100015573885, "alt_km": 895.6432912086548, "timestamp": "2025-12-21T05:44:51.856926+00:00", "meta": {"OBJECT_NAME": "FENGYUN 1C DEB", "OBJECT_ID": "1999-025BF", "EPOCH": "2025-12-20T13:20:37.154112", "MEAN_MOTION": 14.02152858, "ECCENTRICITY": 0.0060125, "INCLINATION": 98.8292, "RA_OF_ASC_NODE": 12.4963, "ARG_OF_PERICENTER": 71.0906, "MEAN_ANOMALY": 55.3024, "EPHEMERIS_TYPE": 0, "CLASSIFICATION_TYPE": "U", "NORAD_CAT_ID": 29765, "ELEMENT_SET_NO": 999, "REV_AT_EPOCH": 96860, "BSTAR": -6.53e-05, "MEAN_MOTION_DOT": -1.44e-06, "MEAN_MOTION_DDOT": 0}, "tle": {"line1": "1 29765U 99025BF  25354.55598558 -.00000144  00000+0 -65300-4 0  9991", "line2": "2 29765  98.8292  12.4963 0060125  71.0906  55.3024 14.02152858968605"}}, "geometry": {"type": "Point", "coordinates": [17.471100015573885, -25.819486161495135]}}, {"type": "Feature", "properties": {"norad_id": 29766, "name": "FENGYUN 1C DEB", "group": "fengyun-1c-debris", "lat": -29.66580562246683, "lon": -50.598671257441886, "alt_km": 864.414625985175, "timestamp": "2025-12-21T05:44:51.856936+00:00", "meta": {"OBJECT_NAME": "FENGYUN 1C DEB", "OBJECT_ID": "1999-025BG", "EPOCH": "2025-12-20T19:50:39.198048", "MEAN_MOTION": 13.97077788, "ECCENTRICITY": 0.01457544, "INCLINATION": 98.6864, "RA_OF_ASC_NODE": 304.0158, "ARG_OF_PERICENTER": 265.7452, "MEAN_ANOMALY": 148.5504, "EPHEMERIS_TYPE": 0, "CLASSIFICATION_TYPE": "U", "NORAD_CAT_ID": 29766, "ELEMENT_SET_NO": 999, "REV_AT_EPOCH": 95917, "BSTAR": 0.0006842481, "MEAN_MOTION_DOT": 1.003e-05, "MEAN_MOTION_DDOT": 0}, "tle": {"line1": "1 29766U 99025BG  25354.82684257  .00001003  00000+0  68425-3 0  9997", "line2": "2 29766  98.6864 304.0158 0145754 265.7452 148.5504 13.97077788959176"}}, "geometry": {"type": "Point", "coordinates": [-50.598671257441886, -29.66580562246683]}}, {"type": "Feature", "properties": {"norad_id": 29767, "name": "FENGYUN 1C DEB", "group": "fengyun-1c-debris", "lat": 52.07848054076963, "lon": -47.548848737656606, "alt_km": 643.799108907343, "timestamp": "2025-12-21T05:44:51.856953+00:00", "meta": {"OBJECT_NAME": "FENGYUN 1C DEB", "OBJECT_ID": "1999-025BH", "EPOCH": "2025-12-20T09:40:25.553856", "MEAN_MOTION": 14.03413074, "ECCENTRICITY": 0.03330576, "INCLINATION": 98.1983, "RA_OF_ASC_NODE": 322.3589, "ARG_OF_PERICENTER": 39.5094, "MEAN_ANOMALY": 108.9508, "EPHEMERIS_TYPE": 0, "CLASSIFICATION_TYPE": "U", "NORAD_CAT_ID": 29767, "ELEMENT_SET_NO": 999, "REV_AT_EPOCH": 95707, "BSTAR": 0.0015580267, "MEAN_MOTION_DOT": 3.951e-05, "MEAN_MOTION_DDOT": 0}, "tle": {"line1": "1 29767U 99025BH  25354.40307354  .00003951  00000+0  15580-2 0  9999", "line2": "2 29767  98.1983 322.3589 0333057  39.5094 108.9508 14.03413074957070"}}, "geometry": {"type": "Point", "coordinates": [-47.548848737656606, 52.07848054076963]}}]}